KUIPER-00589            
1 69767U 26151E   26192.16668980 -.00024655  00000+0 -65373-3 0  9994
2 69767  51.8755 199.8633 0005531 130.6661 288.6440 15.37380030  2031
KUIPER-00598            
1 69768U 26151F   26192.16668980 -.00026878  00000+0 -75842-3 0  9996
2 69768  51.8636 199.9697 0010023 153.3729 212.7500 15.35467434  1946
KUIPER-00604            
1 69769U 26151G   26192.16668980 -.00025667  00000+0 -66341-3 0  9996
2 69769  51.8800 199.8033 0002793  95.9761 349.7241 15.38199351  2357
KUIPER-00609            
1 69770U 26151H   26192.16668980 -.00023997  00000+0 -61146-3 0  9990
2 69770  51.8803 199.7747 0001026  44.1139  55.1956 15.38599379  1305
KUIPER-00611            
1 69771U 26151J   26192.16668980 -.00025389  00000+0 -65163-3 0  9991
2 69771  51.8806 199.7848 0001689  93.6085 358.8996 15.38411006  1302
KUIPER-00612            
1 69772U 26151K   26192.16668980 -.00025617  00000+0 -66848-3 0  9997
2 69772  51.8793 199.8248 0003803 103.9522 332.2871 15.37901170  1307
KUIPER-00614            
1 69773U 26151L   26192.16668980 -.00024945  00000+0 -64619-3 0  9995
2 69773  51.8804 199.8073 0002813 111.1471 331.8115 15.38114521  1933
KUIPER-00615            
1 69774U 26151M   26192.16668980 -.00024840  00000+0 -66258-3 0  9991
2 69774  51.8775 199.8739 0006240 133.8226 279.5528 15.37194902  1304
KUIPER-00616            
1 69775U 26151N   26192.16668980 -.00024445  00000+0 -62799-3 0  9999
2 69775  51.8786 199.8043 0003219 110.1365 336.8391 15.38353554  1306
KUIPER-00617            
1 69776U 26151P   26192.16668980 -.00025246  00000+0 -66211-3 0  9993
2 69776  51.8798 199.8311 0004150 122.3856 310.1594 15.37737663  1309
KUIPER-00619            
1 69777U 26151Q   26192.16668980 -.00025028  00000+0 -64034-3 0  9993
2 69777  51.8805 199.7793 0001695  54.3740  41.7880 15.38498601  1424
KUIPER-00621            
1 69778U 26151R   26192.16668980 -.00025921  00000+0 -66820-3 0  9991
2 69778  51.8796 199.7990 0002075 102.0361 346.5855 15.38288864  2175
KUIPER-00622            
1 69779U 26151S   26192.16668980 -.00024762  00000+0 -66553-3 0  9997
2 69779  51.8734 199.8884 0006968 135.0374 272.2466 15.36954821  2035
KUIPER-00623            
1 69780U 26151T   26192.16668980 -.00024732  00000+0 -65548-3 0  9999
2 69780  51.8780 199.8534 0005143 122.0091 301.1470 15.37397770  2151
KUIPER-00626            
1 69781U 26151U   26192.16668980 -.00026141  00000+0 -73172-3 0  9998
2 69781  51.8715 199.9515 0010520 151.9974 224.0655 15.35695420  2391
KUIPER-00627            
1 69782U 26151V   26192.16668980 -.00022817  00000+0 -64069-3 0  9990
2 69782  51.8688 199.9683 0011388 154.5618 213.1941 15.35505620  1303
