{"fetched_at":"2026-07-11T09:23:55.576Z","source":"https://celestrak.org/NORAD/elements/gp.php?GROUP=kuiper&FORMAT=JSON","constellation":"kuiper","records":[{"OBJECT_NAME":"KUIPER-00589","OBJECT_ID":"2026-151E","EPOCH":"2026-07-11T04:00:01.998720","CLASSIFICATION_TYPE":"U","MEAN_MOTION":15.3738003,"ECCENTRICITY":0.0005531,"INCLINATION":51.8755,"RA_OF_ASC_NODE":199.8633,"ARG_OF_PERICENTER":130.6661,"MEAN_ANOMALY":288.644,"EPHEMERIS_TYPE":0,"NORAD_CAT_ID":69767,"ELEMENT_SET_NO":999,"REV_AT_EPOCH":203,"BSTAR":-0.00065373,"MEAN_MOTION_DOT":-0.00024655,"MEAN_MOTION_DDOT":0},{"OBJECT_NAME":"KUIPER-00598","OBJECT_ID":"2026-151F","EPOCH":"2026-07-11T04:00:01.998720","CLASSIFICATION_TYPE":"U","MEAN_MOTION":15.35467434,"ECCENTRICITY":0.0010023,"INCLINATION":51.8636,"RA_OF_ASC_NODE":199.9697,"ARG_OF_PERICENTER":153.3729,"MEAN_ANOMALY":212.75,"EPHEMERIS_TYPE":0,"NORAD_CAT_ID":69768,"ELEMENT_SET_NO":999,"REV_AT_EPOCH":194,"BSTAR":-0.00075842,"MEAN_MOTION_DOT":-0.00026878,"MEAN_MOTION_DDOT":0},{"OBJECT_NAME":"KUIPER-00604","OBJECT_ID":"2026-151G","EPOCH":"2026-07-11T04:00:01.998720","CLASSIFICATION_TYPE":"U","MEAN_MOTION":15.38199351,"ECCENTRICITY":0.0002793,"INCLINATION":51.88,"RA_OF_ASC_NODE":199.8033,"ARG_OF_PERICENTER":95.9761,"MEAN_ANOMALY":349.7241,"EPHEMERIS_TYPE":0,"NORAD_CAT_ID":69769,"ELEMENT_SET_NO":999,"REV_AT_EPOCH":235,"BSTAR":-0.00066341,"MEAN_MOTION_DOT":-0.00025667,"MEAN_MOTION_DDOT":0},{"OBJECT_NAME":"KUIPER-00609","OBJECT_ID":"2026-151H","EPOCH":"2026-07-11T04:00:01.998720","CLASSIFICATION_TYPE":"U","MEAN_MOTION":15.38599379,"ECCENTRICITY":0.0001026,"INCLINATION":51.8803,"RA_OF_ASC_NODE":199.7747,"ARG_OF_PERICENTER":44.1139,"MEAN_ANOMALY":55.1956,"EPHEMERIS_TYPE":0,"NORAD_CAT_ID":69770,"ELEMENT_SET_NO":999,"REV_AT_EPOCH":130,"BSTAR":-0.00061146,"MEAN_MOTION_DOT":-0.00023997,"MEAN_MOTION_DDOT":0},{"OBJECT_NAME":"KUIPER-00611","OBJECT_ID":"2026-151J","EPOCH":"2026-07-11T04:00:01.998720","CLASSIFICATION_TYPE":"U","MEAN_MOTION":15.38411006,"ECCENTRICITY":0.0001689,"INCLINATION":51.8806,"RA_OF_ASC_NODE":199.7848,"ARG_OF_PERICENTER":93.6085,"MEAN_ANOMALY":358.8996,"EPHEMERIS_TYPE":0,"NORAD_CAT_ID":69771,"ELEMENT_SET_NO":999,"REV_AT_EPOCH":130,"BSTAR":-0.00065163,"MEAN_MOTION_DOT":-0.00025389,"MEAN_MOTION_DDOT":0},{"OBJECT_NAME":"KUIPER-00612","OBJECT_ID":"2026-151K","EPOCH":"2026-07-11T04:00:01.998720","CLASSIFICATION_TYPE":"U","MEAN_MOTION":15.3790117,"ECCENTRICITY":0.0003803,"INCLINATION":51.8793,"RA_OF_ASC_NODE":199.8248,"ARG_OF_PERICENTER":103.9522,"MEAN_ANOMALY":332.2871,"EPHEMERIS_TYPE":0,"NORAD_CAT_ID":69772,"ELEMENT_SET_NO":999,"REV_AT_EPOCH":130,"BSTAR":-0.00066848,"MEAN_MOTION_DOT":-0.00025617,"MEAN_MOTION_DDOT":0},{"OBJECT_NAME":"KUIPER-00614","OBJECT_ID":"2026-151L","EPOCH":"2026-07-11T04:00:01.998720","CLASSIFICATION_TYPE":"U","MEAN_MOTION":15.38114521,"ECCENTRICITY":0.0002813,"INCLINATION":51.8804,"RA_OF_ASC_NODE":199.8073,"ARG_OF_PERICENTER":111.1471,"MEAN_ANOMALY":331.8115,"EPHEMERIS_TYPE":0,"NORAD_CAT_ID":69773,"ELEMENT_SET_NO":999,"REV_AT_EPOCH":193,"BSTAR":-0.00064619,"MEAN_MOTION_DOT":-0.00024945,"MEAN_MOTION_DDOT":0},{"OBJECT_NAME":"KUIPER-00615","OBJECT_ID":"2026-151M","EPOCH":"2026-07-11T04:00:01.998720","CLASSIFICATION_TYPE":"U","MEAN_MOTION":15.37194902,"ECCENTRICITY":0.000624,"INCLINATION":51.8775,"RA_OF_ASC_NODE":199.8739,"ARG_OF_PERICENTER":133.8226,"MEAN_ANOMALY":279.5528,"EPHEMERIS_TYPE":0,"NORAD_CAT_ID":69774,"ELEMENT_SET_NO":999,"REV_AT_EPOCH":130,"BSTAR":-0.00066258,"MEAN_MOTION_DOT":-0.0002484,"MEAN_MOTION_DDOT":0},{"OBJECT_NAME":"KUIPER-00616","OBJECT_ID":"2026-151N","EPOCH":"2026-07-11T04:00:01.998720","CLASSIFICATION_TYPE":"U","MEAN_MOTION":15.38353554,"ECCENTRICITY":0.0003219,"INCLINATION":51.8786,"RA_OF_ASC_NODE":199.8043,"ARG_OF_PERICENTER":110.1365,"MEAN_ANOMALY":336.8391,"EPHEMERIS_TYPE":0,"NORAD_CAT_ID":69775,"ELEMENT_SET_NO":999,"REV_AT_EPOCH":130,"BSTAR":-0.00062799,"MEAN_MOTION_DOT":-0.00024445,"MEAN_MOTION_DDOT":0},{"OBJECT_NAME":"KUIPER-00617","OBJECT_ID":"2026-151P","EPOCH":"2026-07-11T04:00:01.998720","CLASSIFICATION_TYPE":"U","MEAN_MOTION":15.37737663,"ECCENTRICITY":0.000415,"INCLINATION":51.8798,"RA_OF_ASC_NODE":199.8311,"ARG_OF_PERICENTER":122.3856,"MEAN_ANOMALY":310.1594,"EPHEMERIS_TYPE":0,"NORAD_CAT_ID":69776,"ELEMENT_SET_NO":999,"REV_AT_EPOCH":130,"BSTAR":-0.00066211,"MEAN_MOTION_DOT":-0.00025246,"MEAN_MOTION_DDOT":0},{"OBJECT_NAME":"KUIPER-00619","OBJECT_ID":"2026-151Q","EPOCH":"2026-07-11T04:00:01.998720","CLASSIFICATION_TYPE":"U","MEAN_MOTION":15.38498601,"ECCENTRICITY":0.0001695,"INCLINATION":51.8805,"RA_OF_ASC_NODE":199.7793,"ARG_OF_PERICENTER":54.374,"MEAN_ANOMALY":41.788,"EPHEMERIS_TYPE":0,"NORAD_CAT_ID":69777,"ELEMENT_SET_NO":999,"REV_AT_EPOCH":142,"BSTAR":-0.00064034,"MEAN_MOTION_DOT":-0.00025028,"MEAN_MOTION_DDOT":0},{"OBJECT_NAME":"KUIPER-00621","OBJECT_ID":"2026-151R","EPOCH":"2026-07-11T04:00:01.998720","CLASSIFICATION_TYPE":"U","MEAN_MOTION":15.38288864,"ECCENTRICITY":0.0002075,"INCLINATION":51.8796,"RA_OF_ASC_NODE":199.799,"ARG_OF_PERICENTER":102.0361,"MEAN_ANOMALY":346.5855,"EPHEMERIS_TYPE":0,"NORAD_CAT_ID":69778,"ELEMENT_SET_NO":999,"REV_AT_EPOCH":217,"BSTAR":-0.0006682,"MEAN_MOTION_DOT":-0.00025921,"MEAN_MOTION_DDOT":0},{"OBJECT_NAME":"KUIPER-00622","OBJECT_ID":"2026-151S","EPOCH":"2026-07-11T04:00:01.998720","CLASSIFICATION_TYPE":"U","MEAN_MOTION":15.36954821,"ECCENTRICITY":0.0006968,"INCLINATION":51.8734,"RA_OF_ASC_NODE":199.8884,"ARG_OF_PERICENTER":135.0374,"MEAN_ANOMALY":272.2466,"EPHEMERIS_TYPE":0,"NORAD_CAT_ID":69779,"ELEMENT_SET_NO":999,"REV_AT_EPOCH":203,"BSTAR":-0.00066553,"MEAN_MOTION_DOT":-0.00024762,"MEAN_MOTION_DDOT":0},{"OBJECT_NAME":"KUIPER-00623","OBJECT_ID":"2026-151T","EPOCH":"2026-07-11T04:00:01.998720","CLASSIFICATION_TYPE":"U","MEAN_MOTION":15.3739777,"ECCENTRICITY":0.0005143,"INCLINATION":51.878,"RA_OF_ASC_NODE":199.8534,"ARG_OF_PERICENTER":122.0091,"MEAN_ANOMALY":301.147,"EPHEMERIS_TYPE":0,"NORAD_CAT_ID":69780,"ELEMENT_SET_NO":999,"REV_AT_EPOCH":215,"BSTAR":-0.00065548,"MEAN_MOTION_DOT":-0.00024732,"MEAN_MOTION_DDOT":0},{"OBJECT_NAME":"KUIPER-00626","OBJECT_ID":"2026-151U","EPOCH":"2026-07-11T04:00:01.998720","CLASSIFICATION_TYPE":"U","MEAN_MOTION":15.3569542,"ECCENTRICITY":0.001052,"INCLINATION":51.8715,"RA_OF_ASC_NODE":199.9515,"ARG_OF_PERICENTER":151.9974,"MEAN_ANOMALY":224.0655,"EPHEMERIS_TYPE":0,"NORAD_CAT_ID":69781,"ELEMENT_SET_NO":999,"REV_AT_EPOCH":239,"BSTAR":-0.00073172,"MEAN_MOTION_DOT":-0.00026141,"MEAN_MOTION_DDOT":0},{"OBJECT_NAME":"KUIPER-00627","OBJECT_ID":"2026-151V","EPOCH":"2026-07-11T04:00:01.998720","CLASSIFICATION_TYPE":"U","MEAN_MOTION":15.3550562,"ECCENTRICITY":0.0011388,"INCLINATION":51.8688,"RA_OF_ASC_NODE":199.9683,"ARG_OF_PERICENTER":154.5618,"MEAN_ANOMALY":213.1941,"EPHEMERIS_TYPE":0,"NORAD_CAT_ID":69782,"ELEMENT_SET_NO":999,"REV_AT_EPOCH":130,"BSTAR":-0.00064069,"MEAN_MOTION_DOT":-0.00022817,"MEAN_MOTION_DDOT":0}]}
